{
  "type": "FeatureCollection",
  "features": [
    {
      "type": "Feature",
      "properties": {
        "norad_id": 46805,
        "name": "COSMOS 2547 (705K)",
        "group": "glo-ops",
        "lat": 37.090888112374564,
        "lon": -140.2443197556395,
        "alt_km": 19141.94092275551,
        "timestamp": "2025-12-12T16:50:33.406010+00:00",
        "meta_object_name": "COSMOS 2547 (705K)",
        "meta_object_id": "2020-075A",
        "meta_epoch": "2025-12-08T21:25:56.196192",
        "meta_mean_motion": 2.13099854,
        "meta_eccentricity": 0.00063847,
        "meta_inclination": 64.5958,
        "meta_ra_of_asc_node": 198.8249,
        "meta_arg_of_pericenter": 229.7163,
        "meta_mean_anomaly": 130.3027,
        "meta_ephemeris_type": 0,
        "meta_classification_type": "U",
        "meta_norad_cat_id": 46805,
        "meta_element_set_no": 999,
        "meta_rev_at_epoch": 3985,
        "meta_bstar": 0,
        "meta_mean_motion_dot": 4.5e-07,
        "meta_mean_motion_ddot": 0,
        "tle_line1": "1 46805U 20075A   25342.89301153  .00000045  00000+0  00000+0 0  9990",
        "tle_line2": "2 46805  64.5958 198.8249 0006384 229.7163 130.3027  2.13099854 39856"
      },
      "geometry": {
        "type": "Point",
        "coordinates": [
          -140.2443197556395,
          37.090888112374564
        ]
      }
    },
    {
      "type": "Feature",
      "properties": {
        "norad_id": 52984,
        "name": "COSMOS 2557 (706K)",
        "group": "glo-ops",
        "lat": -63.94848578691425,
        "lon": -117.5058365421678,
        "alt_km": 19101.502963036557,
        "timestamp": "2025-12-12T16:50:33.406022+00:00",
        "meta_object_name": "COSMOS 2557 (706K)",
        "meta_object_id": "2022-075A",
        "meta_epoch": "2025-12-07T04:21:00.419904",
        "meta_mean_motion": 2.13101754,
        "meta_eccentricity": 0.00137049,
        "meta_inclination": 64.4129,
        "meta_ra_of_asc_node": 321.247,
        "meta_arg_of_pericenter": 276.9,
        "meta_mean_anomaly": 82.939,
        "meta_ephemeris_type": 0,
        "meta_classification_type": "U",
        "meta_norad_cat_id": 52984,
        "meta_element_set_no": 999,
        "meta_rev_at_epoch": 2662,
        "meta_bstar": 0,
        "meta_mean_motion_dot": -5.2e-07,
        "meta_mean_motion_ddot": 0,
        "tle_line1": "1 52984U 22075A   25341.18125486 -.00000052  00000+0  00000+0 0  9990",
        "tle_line2": "2 52984  64.4129 321.2470 0013704 276.9000  82.9390  2.13101754 26625"
      },
      "geometry": {
        "type": "Point",
        "coordinates": [
          -117.5058365421678,
          -63.94848578691425
        ]
      }
    },
    {
      "type": "Feature",
      "properties": {
        "norad_id": 54031,
        "name": "COSMOS 2559 (707K)",
        "group": "glo-ops",
        "lat": 46.647096162153254,
        "lon": -8.329480864391668,
        "alt_km": 19147.16418038253,
        "timestamp": "2025-12-12T16:50:33.406032+00:00",
        "meta_object_name": "COSMOS 2559 (707K)",
        "meta_object_id": "2022-130A",
        "meta_epoch": "2025-12-12T03:53:43.468224",
        "meta_mean_motion": 2.13101343,
        "meta_eccentricity": 0.00118146,
        "meta_inclination": 64.3826,
        "meta_ra_of_asc_node": 321.1614,
        "meta_arg_of_pericenter": 192.4425,
        "meta_mean_anomaly": 167.5288,
        "meta_ephemeris_type": 0,
        "meta_classification_type": "U",
        "meta_norad_cat_id": 54031,
        "meta_element_set_no": 999,
        "meta_rev_at_epoch": 2470,
        "meta_bstar": 0,
        "meta_mean_motion_dot": -5.8e-07,
        "meta_mean_motion_ddot": 0,
        "tle_line1": "1 54031U 22130A   25346.16230866 -.00000058  00000+0  00000+0 0  9995",
        "tle_line2": "2 54031  64.3826 321.1614 0011814 192.4425 167.5288  2.13101343 24702"
      },
      "geometry": {
        "type": "Point",
        "coordinates": [
          -8.329480864391668,
          46.647096162153254
        ]
      }
    },
    {
      "type": "Feature",
      "properties": {
        "norad_id": 54377,
        "name": "COSMOS 2564 (761)",
        "group": "glo-ops",
        "lat": 6.014262043677544,
        "lon": 16.051717187995774,
        "alt_km": 19110.921218169515,
        "timestamp": "2025-12-12T16:50:33.406043+00:00",
        "meta_object_name": "COSMOS 2564 (761)",
        "meta_object_id": "2022-161A",
        "meta_epoch": "2025-12-11T12:53:38.736096",
        "meta_mean_motion": 2.13102051,
        "meta_eccentricity": 0.00086147,
        "meta_inclination": 64.7381,
        "meta_ra_of_asc_node": 198.9389,
        "meta_arg_of_pericenter": 204.933,
        "meta_mean_anomaly": 155.0953,
        "meta_ephemeris_type": 0,
        "meta_classification_type": "U",
        "meta_norad_cat_id": 54377,
        "meta_element_set_no": 999,
        "meta_rev_at_epoch": 2363,
        "meta_bstar": 0,
        "meta_mean_motion_dot": 5.6e-07,
        "meta_mean_motion_ddot": 0,
        "tle_line1": "1 54377U 22161A   25345.53725389  .00000056  00000+0  00000+0 0  9998",
        "tle_line2": "2 54377  64.7381 198.9389 0008614 204.9330 155.0953  2.13102051 23631"
      },
      "geometry": {
        "type": "Point",
        "coordinates": [
          16.051717187995774,
          6.014262043677544
        ]
      }
    },
    {
      "type": "Feature",
      "properties": {
        "norad_id": 57517,
        "name": "COSMOS 2569 (703K)",
        "group": "glo-ops",
        "lat": 15.425476501933973,
        "lon": -108.40168833803583,
        "alt_km": 19143.205367464583,
        "timestamp": "2025-12-12T16:50:33.406054+00:00",
        "meta_object_name": "COSMOS 2569 (703K)",
        "meta_object_id": "2023-114A",
        "meta_epoch": "2025-12-11T01:57:11.687328",
        "meta_mean_motion": 2.13103934,
        "meta_eccentricity": 0.0010485,
        "meta_inclination": 65.1933,
        "meta_ra_of_asc_node": 78.9695,
        "meta_arg_of_pericenter": 287.0346,
        "meta_mean_anomaly": 72.8683,
        "meta_ephemeris_type": 0,
        "meta_classification_type": "U",
        "meta_norad_cat_id": 57517,
        "meta_element_set_no": 999,
        "meta_rev_at_epoch": 1825,
        "meta_bstar": 0,
        "meta_mean_motion_dot": -2.7e-07,
        "meta_mean_motion_ddot": 0,
        "tle_line1": "1 57517U 23114A   25345.08138527 -.00000027  00000+0  00000+0 0  9997",
        "tle_line2": "2 57517  65.1933  78.9695 0010485 287.0346  72.8683  2.13103934 18252"
      },
      "geometry": {
        "type": "Point",
        "coordinates": [
          -108.40168833803583,
          15.425476501933973
        ]
      }
    },
    {
      "type": "Feature",
      "properties": {
        "norad_id": 63130,
        "name": "COSMOS 2584 (704K)",
        "group": "glo-ops",
        "lat": -58.47951950835202,
        "lon": -51.336020439793025,
        "alt_km": 19120.078590253688,
        "timestamp": "2025-12-12T16:50:33.406065+00:00",
        "meta_object_name": "COSMOS 2584 (704K)",
        "meta_object_id": "2025-042A",
        "meta_epoch": "2025-12-08T03:39:29.178720",
        "meta_mean_motion": 2.13102925,
        "meta_eccentricity": 0.0007602,
        "meta_inclination": 64.9737,
        "meta_ra_of_asc_node": 79.3022,
        "meta_arg_of_pericenter": 215.9611,
        "meta_mean_anomaly": 144.0025,
        "meta_ephemeris_type": 0,
        "meta_classification_type": "U",
        "meta_norad_cat_id": 63130,
        "meta_element_set_no": 999,
        "meta_rev_at_epoch": 597,
        "meta_bstar": 0,
        "meta_mean_motion_dot": -1.2e-07,
        "meta_mean_motion_ddot": 0,
        "tle_line1": "1 63130U 25042A   25342.15242105 -.00000012  00000+0  00000+0 0  9994",
        "tle_line2": "2 63130  64.9737  79.3022 0007602 215.9611 144.0025  2.13102925  5976"
      },
      "geometry": {
        "type": "Point",
        "coordinates": [
          -51.336020439793025,
          -58.47951950835202
        ]
      }
    },
    {
      "type": "Feature",
      "properties": {
        "norad_id": 65590,
        "name": "COSMOS 2596 (708K)",
        "group": "glo-ops",
        "lat": 7.874807224418755,
        "lon": -34.79180120993363,
        "alt_km": 19113.202774635607,
        "timestamp": "2025-12-12T16:50:33.406076+00:00",
        "meta_object_name": "COSMOS 2596 (708K)",
        "meta_object_id": "2025-206B",
        "meta_epoch": "2025-12-10T13:06:28.122048",
        "meta_mean_motion": 2.13100337,
        "meta_eccentricity": 0.00140136,
        "meta_inclination": 64.7453,
        "meta_ra_of_asc_node": 321.5499,
        "meta_arg_of_pericenter": 305.8933,
        "meta_mean_anomaly": 208.9804,
        "meta_ephemeris_type": 0,
        "meta_classification_type": "U",
        "meta_norad_cat_id": 65590,
        "meta_element_set_no": 999,
        "meta_rev_at_epoch": 189,
        "meta_bstar": 0,
        "meta_mean_motion_dot": -5.2e-07,
        "meta_mean_motion_ddot": 0,
        "tle_line1": "1 65590U 25206B   25344.54615882 -.00000052  00000+0  00000+0 0  9993",
        "tle_line2": "2 65590  64.7453 321.5499 0014013 305.8933 208.9804  2.13100337  1898"
      },
      "geometry": {
        "type": "Point",
        "coordinates": [
          -34.79180120993363,
          7.874807224418755
        ]
      }
    }
  ]
}